EUTELSAT 16A            
1 37836U 11057A   25205.91225620  .00000092  00000+0  00000+0 0  9991
2 37836   0.0638 353.3667 0005567 128.9706 164.9446  1.00269459 50505
EUTELSAT 21B            
1 38992U 12062B   25205.88108799  .00000117  00000+0  00000+0 0  9993
2 38992   0.0665 354.1622 0003008 126.5636 160.9138  1.00263883 46585
EUTELSAT 70B            
1 39020U 12069A   25205.94072616 -.00000055  00000+0  00000+0 0  9990
2 39020   0.0623 354.7325 0003604 129.1580 228.1569  1.00271087 46228
EUTELSAT 117 WEST A     
1 39122U 13012A   25205.67235744 -.00000025  00000+0  00000+0 0  9992
2 39122   0.0100  50.8259 0002804  83.0732 293.9699  1.00272679 45141
EUTELSAT 7B             
1 39163U 13022A   25205.83968388  .00000036  00000+0  00000+0 0  9994
2 39163   0.0668 353.6053 0002871  53.4938 204.9559  1.00271808 44671
EXPRESS-AT1             
1 39612U 14010A   25205.90742727  .00000066  00000+0  00000+0 0  9999
2 39612   0.0199  71.6722 0000096 248.0613   5.8055  1.00270403 41539
EXPRESS-AT2             
1 39613U 14010B   25205.79461700 -.00000294  00000+0  00000+0 0  9990
2 39613   0.0201  69.1436 0000087 224.3968  75.1262  1.00268630 41605
EUTELSAT 3B             
1 39773U 14030A   25205.83890388  .00000008  00000+0  00000+0 0  9994
2 39773   0.0615 355.9725 0003935 136.5378 115.3782  1.00269936 40784
